ONEWEB-0697             
1 61603U 24188K   26193.47892633  .00000109  00000+0  27164-3 0  9994
2 61603  87.8883  16.0299 0002498  98.9390 261.2021 13.11418878 87762
ONEWEB-0698             
1 61604U 24188L   26193.53317478 -.00000492  00000+0 -14234-2 0  9991
2 61604  87.8882  16.0335 0002408 119.1924 240.9445 13.11416246 87797
ONEWEB-0699             
1 61605U 24188M   26193.48957844 -.00000337  00000+0 -10009-2 0  9997
2 61605  87.8805  31.2222 0002424 101.1526 258.9874 13.10370595 86625
ONEWEB-0700             
1 61606U 24188N   26193.49125703 -.00000428  00000+0 -12616-2 0  9997
2 61606  87.8833  31.1364 0002405  97.6699 262.4701 13.10369258 86614
ONEWEB-0701             
1 61607U 24188P   26193.50824124 -.00000544  00000+0 -15938-2 0  9992
2 61607  87.8820  31.2202 0002500 100.9256 259.2153 13.10374383 86627
ONEWEB-0702             
1 61608U 24188Q   26193.50267191  .00000532  00000+0  14648-2 0  9990
2 61608  87.8898  15.9487 0002813  95.1506 264.9943 13.11415803 87802
ONEWEB-0704             
1 61609U 24188R   26193.49635175 -.00000549  00000+0 -16088-2 0  9990
2 61609  87.8822  31.2125 0002838  92.0390 268.1063 13.10370506 86609
ONEWEB-0705             
1 61610U 24188S   26193.50145137 -.00000624  00000+0 -18253-2 0  9998
2 61610  87.8823  31.2175 0002741  75.8051 284.3381 13.10372736 78772
ONEWEB-0706             
1 61611U 24188T   26193.48618455 -.00000211  00000+0 -64098-3 0  9995
2 61611  87.8824  31.2254 0002468  88.0790 272.0620 13.10369515 86695
ONEWEB-0707             
1 61612U 24188U   26193.49295167 -.00000493  00000+0 -14494-2 0  9994
2 61612  87.8821  31.2179 0002416  88.4861 271.6543 13.10369290 86638
ONEWEB-0708             
1 61613U 24188V   26192.97712233 -.00000286  00000+0 -85552-3 0  9999
2 61613  87.8821  31.3372 0002096  72.1815 287.9541 13.10374160 86548
