{"fetched_at":"2026-07-12T17:32:24.168Z","source":"https://celestrak.org/NORAD/elements/gp.php?GROUP=oneweb&FORMAT=JSON","constellation":"oneweb","records":[{"OBJECT_NAME":"ONEWEB-0697","OBJECT_ID":"2024-188K","EPOCH":"2026-07-12T11:29:39.234912","CLASSIFICATION_TYPE":"U","MEAN_MOTION":13.11418878,"ECCENTRICITY":0.0002498,"INCLINATION":87.8883,"RA_OF_ASC_NODE":16.0299,"ARG_OF_PERICENTER":98.939,"MEAN_ANOMALY":261.2021,"EPHEMERIS_TYPE":0,"NORAD_CAT_ID":61603,"ELEMENT_SET_NO":999,"REV_AT_EPOCH":8776,"BSTAR":0.00027164,"MEAN_MOTION_DOT":0.00000109,"MEAN_MOTION_DDOT":0},{"OBJECT_NAME":"ONEWEB-0698","OBJECT_ID":"2024-188L","EPOCH":"2026-07-12T12:47:46.300992","CLASSIFICATION_TYPE":"U","MEAN_MOTION":13.11416246,"ECCENTRICITY":0.0002408,"INCLINATION":87.8882,"RA_OF_ASC_NODE":16.0335,"ARG_OF_PERICENTER":119.1924,"MEAN_ANOMALY":240.9445,"EPHEMERIS_TYPE":0,"NORAD_CAT_ID":61604,"ELEMENT_SET_NO":999,"REV_AT_EPOCH":8779,"BSTAR":-0.0014234,"MEAN_MOTION_DOT":-0.00000492,"MEAN_MOTION_DDOT":0},{"OBJECT_NAME":"ONEWEB-0699","OBJECT_ID":"2024-188M","EPOCH":"2026-07-12T11:44:59.577216","CLASSIFICATION_TYPE":"U","MEAN_MOTION":13.10370595,"ECCENTRICITY":0.0002424,"INCLINATION":87.8805,"RA_OF_ASC_NODE":31.2222,"ARG_OF_PERICENTER":101.1526,"MEAN_ANOMALY":258.9874,"EPHEMERIS_TYPE":0,"NORAD_CAT_ID":61605,"ELEMENT_SET_NO":999,"REV_AT_EPOCH":8662,"BSTAR":-0.0010009,"MEAN_MOTION_DOT":-0.00000337,"MEAN_MOTION_DDOT":0},{"OBJECT_NAME":"ONEWEB-0700","OBJECT_ID":"2024-188N","EPOCH":"2026-07-12T11:47:24.607392","CLASSIFICATION_TYPE":"U","MEAN_MOTION":13.10369258,"ECCENTRICITY":0.0002405,"INCLINATION":87.8833,"RA_OF_ASC_NODE":31.1364,"ARG_OF_PERICENTER":97.6699,"MEAN_ANOMALY":262.4701,"EPHEMERIS_TYPE":0,"NORAD_CAT_ID":61606,"ELEMENT_SET_NO":999,"REV_AT_EPOCH":8661,"BSTAR":-0.0012616,"MEAN_MOTION_DOT":-0.00000428,"MEAN_MOTION_DDOT":0},{"OBJECT_NAME":"ONEWEB-0701","OBJECT_ID":"2024-188P","EPOCH":"2026-07-12T12:11:52.043136","CLASSIFICATION_TYPE":"U","MEAN_MOTION":13.10374383,"ECCENTRICITY":0.00025,"INCLINATION":87.882,"RA_OF_ASC_NODE":31.2202,"ARG_OF_PERICENTER":100.9256,"MEAN_ANOMALY":259.2153,"EPHEMERIS_TYPE":0,"NORAD_CAT_ID":61607,"ELEMENT_SET_NO":999,"REV_AT_EPOCH":8662,"BSTAR":-0.0015938,"MEAN_MOTION_DOT":-0.00000544,"MEAN_MOTION_DDOT":0},{"OBJECT_NAME":"ONEWEB-0702","OBJECT_ID":"2024-188Q","EPOCH":"2026-07-12T12:03:50.853024","CLASSIFICATION_TYPE":"U","MEAN_MOTION":13.11415803,"ECCENTRICITY":0.0002813,"INCLINATION":87.8898,"RA_OF_ASC_NODE":15.9487,"ARG_OF_PERICENTER":95.1506,"MEAN_ANOMALY":264.9943,"EPHEMERIS_TYPE":0,"NORAD_CAT_ID":61608,"ELEMENT_SET_NO":999,"REV_AT_EPOCH":8780,"BSTAR":0.0014648,"MEAN_MOTION_DOT":0.00000532,"MEAN_MOTION_DDOT":0},{"OBJECT_NAME":"ONEWEB-0704","OBJECT_ID":"2024-188R","EPOCH":"2026-07-12T11:54:44.791200","CLASSIFICATION_TYPE":"U","MEAN_MOTION":13.10370506,"ECCENTRICITY":0.0002838,"INCLINATION":87.8822,"RA_OF_ASC_NODE":31.2125,"ARG_OF_PERICENTER":92.039,"MEAN_ANOMALY":268.1063,"EPHEMERIS_TYPE":0,"NORAD_CAT_ID":61609,"ELEMENT_SET_NO":999,"REV_AT_EPOCH":8660,"BSTAR":-0.0016088,"MEAN_MOTION_DOT":-0.00000549,"MEAN_MOTION_DDOT":0},{"OBJECT_NAME":"ONEWEB-0705","OBJECT_ID":"2024-188S","EPOCH":"2026-07-12T12:02:05.398368","CLASSIFICATION_TYPE":"U","MEAN_MOTION":13.10372736,"ECCENTRICITY":0.0002741,"INCLINATION":87.8823,"RA_OF_ASC_NODE":31.2175,"ARG_OF_PERICENTER":75.8051,"MEAN_ANOMALY":284.3381,"EPHEMERIS_TYPE":0,"NORAD_CAT_ID":61610,"ELEMENT_SET_NO":999,"REV_AT_EPOCH":7877,"BSTAR":-0.0018253,"MEAN_MOTION_DOT":-0.00000624,"MEAN_MOTION_DDOT":0},{"OBJECT_NAME":"ONEWEB-0706","OBJECT_ID":"2024-188T","EPOCH":"2026-07-12T11:40:06.345120","CLASSIFICATION_TYPE":"U","MEAN_MOTION":13.10369515,"ECCENTRICITY":0.0002468,"INCLINATION":87.8824,"RA_OF_ASC_NODE":31.2254,"ARG_OF_PERICENTER":88.079,"MEAN_ANOMALY":272.062,"EPHEMERIS_TYPE":0,"NORAD_CAT_ID":61611,"ELEMENT_SET_NO":999,"REV_AT_EPOCH":8669,"BSTAR":-0.00064098,"MEAN_MOTION_DOT":-0.00000211,"MEAN_MOTION_DDOT":0},{"OBJECT_NAME":"ONEWEB-0707","OBJECT_ID":"2024-188U","EPOCH":"2026-07-12T11:49:51.024288","CLASSIFICATION_TYPE":"U","MEAN_MOTION":13.1036929,"ECCENTRICITY":0.0002416,"INCLINATION":87.8821,"RA_OF_ASC_NODE":31.2179,"ARG_OF_PERICENTER":88.4861,"MEAN_ANOMALY":271.6543,"EPHEMERIS_TYPE":0,"NORAD_CAT_ID":61612,"ELEMENT_SET_NO":999,"REV_AT_EPOCH":8663,"BSTAR":-0.0014494,"MEAN_MOTION_DOT":-0.00000493,"MEAN_MOTION_DDOT":0},{"OBJECT_NAME":"ONEWEB-0708","OBJECT_ID":"2024-188V","EPOCH":"2026-07-11T23:27:03.369312","CLASSIFICATION_TYPE":"U","MEAN_MOTION":13.1037416,"ECCENTRICITY":0.00020963,"INCLINATION":87.8821,"RA_OF_ASC_NODE":31.3372,"ARG_OF_PERICENTER":72.1815,"MEAN_ANOMALY":287.9541,"EPHEMERIS_TYPE":0,"NORAD_CAT_ID":61613,"ELEMENT_SET_NO":999,"REV_AT_EPOCH":8654,"BSTAR":-0.00085551662,"MEAN_MOTION_DOT":-0.00000286,"MEAN_MOTION_DDOT":0}]}
